{"fetched_at":"2026-07-07T18:29:28.582Z","source":"https://celestrak.org/NORAD/elements/gp.php?NAME=GLOBAL&FORMAT=JSON","constellation":"blacksky-gen2","records":[{"OBJECT_NAME":"GLOBAL-2","OBJECT_ID":"2018-099BG","EPOCH":"2026-07-07T04:05:48.759936","CLASSIFICATION_TYPE":"U","MEAN_MOTION":15.0879723,"ECCENTRICITY":0.0007642,"INCLINATION":97.355,"RA_OF_ASC_NODE":223.853,"ARG_OF_PERICENTER":88.6043,"MEAN_ANOMALY":271.6062,"EPHEMERIS_TYPE":0,"NORAD_CAT_ID":43812,"ELEMENT_SET_NO":999,"REV_AT_EPOCH":41492,"BSTAR":0.00016805,"MEAN_MOTION_DOT":0.00002583,"MEAN_MOTION_DDOT":0},{"OBJECT_NAME":"GLOBAL-4","OBJECT_ID":"2019-054E","EPOCH":"2026-07-07T04:18:55.097568","CLASSIFICATION_TYPE":"U","MEAN_MOTION":15.66393813,"ECCENTRICITY":0.0004271,"INCLINATION":45.0043,"RA_OF_ASC_NODE":120.8797,"ARG_OF_PERICENTER":139.7591,"MEAN_ANOMALY":220.3623,"EPHEMERIS_TYPE":0,"NORAD_CAT_ID":44499,"ELEMENT_SET_NO":999,"REV_AT_EPOCH":38349,"BSTAR":0.00044452,"MEAN_MOTION_DOT":0.00047212,"MEAN_MOTION_DDOT":0},{"OBJECT_NAME":"GLOBAL-9","OBJECT_ID":"2021-023G","EPOCH":"2026-07-07T04:57:39.578112","CLASSIFICATION_TYPE":"U","MEAN_MOTION":15.47367821,"ECCENTRICITY":0.0002639,"INCLINATION":44.9802,"RA_OF_ASC_NODE":137.9416,"ARG_OF_PERICENTER":104.7424,"MEAN_ANOMALY":255.3759,"EPHEMERIS_TYPE":0,"NORAD_CAT_ID":47971,"ELEMENT_SET_NO":999,"REV_AT_EPOCH":29804,"BSTAR":0.00031354,"MEAN_MOTION_DOT":0.00016065,"MEAN_MOTION_DDOT":0},{"OBJECT_NAME":"GLOBAL-14","OBJECT_ID":"2021-106A","EPOCH":"2026-07-07T10:24:17.305632","CLASSIFICATION_TYPE":"U","MEAN_MOTION":15.5154992,"ECCENTRICITY":0.0016258,"INCLINATION":42.0026,"RA_OF_ASC_NODE":170.6699,"ARG_OF_PERICENTER":170.8772,"MEAN_ANOMALY":189.237,"EPHEMERIS_TYPE":0,"NORAD_CAT_ID":49469,"ELEMENT_SET_NO":999,"REV_AT_EPOCH":26127,"BSTAR":0.00028316,"MEAN_MOTION_DOT":0.00017016,"MEAN_MOTION_DDOT":0},{"OBJECT_NAME":"GLOBAL-12","OBJECT_ID":"2021-115BA","EPOCH":"2026-07-07T07:54:22.744224","CLASSIFICATION_TYPE":"U","MEAN_MOTION":15.54947504,"ECCENTRICITY":0.0002603,"INCLINATION":53.1957,"RA_OF_ASC_NODE":307.6011,"ARG_OF_PERICENTER":70.1313,"MEAN_ANOMALY":289.9979,"EPHEMERIS_TYPE":0,"NORAD_CAT_ID":49772,"ELEMENT_SET_NO":999,"REV_AT_EPOCH":25903,"BSTAR":0.0004116,"MEAN_MOTION_DOT":0.00027653,"MEAN_MOTION_DDOT":0},{"OBJECT_NAME":"GLOBAL-13","OBJECT_ID":"2021-115BB","EPOCH":"2026-07-07T08:21:46.101600","CLASSIFICATION_TYPE":"U","MEAN_MOTION":15.46890739,"ECCENTRICITY":0.0001537,"INCLINATION":53.198,"RA_OF_ASC_NODE":318.6912,"ARG_OF_PERICENTER":149.5926,"MEAN_ANOMALY":210.5172,"EPHEMERIS_TYPE":0,"NORAD_CAT_ID":49773,"ELEMENT_SET_NO":999,"REV_AT_EPOCH":25888,"BSTAR":0.00029786,"MEAN_MOTION_DOT":0.00014819,"MEAN_MOTION_DDOT":0},{"OBJECT_NAME":"GLOBAL-17","OBJECT_ID":"2021-120A","EPOCH":"2026-07-07T11:28:03.515808","CLASSIFICATION_TYPE":"U","MEAN_MOTION":15.53410063,"ECCENTRICITY":0.0014002,"INCLINATION":41.995,"RA_OF_ASC_NODE":288.2908,"ARG_OF_PERICENTER":31.7848,"MEAN_ANOMALY":328.3839,"EPHEMERIS_TYPE":0,"NORAD_CAT_ID":49949,"ELEMENT_SET_NO":999,"REV_AT_EPOCH":25805,"BSTAR":0.00033057,"MEAN_MOTION_DOT":0.00021304,"MEAN_MOTION_DDOT":0},{"OBJECT_NAME":"GLOBAL-16","OBJECT_ID":"2021-120B","EPOCH":"2026-07-07T12:27:39.992832","CLASSIFICATION_TYPE":"U","MEAN_MOTION":15.51211338,"ECCENTRICITY":0.001225,"INCLINATION":41.9953,"RA_OF_ASC_NODE":292.1647,"ARG_OF_PERICENTER":21.4228,"MEAN_ANOMALY":338.7127,"EPHEMERIS_TYPE":0,"NORAD_CAT_ID":49950,"ELEMENT_SET_NO":999,"REV_AT_EPOCH":25800,"BSTAR":0.0003025,"MEAN_MOTION_DOT":0.00017939,"MEAN_MOTION_DDOT":0},{"OBJECT_NAME":"GLOBAL-18","OBJECT_ID":"2022-034B","EPOCH":"2026-07-06T21:35:03.700896","CLASSIFICATION_TYPE":"U","MEAN_MOTION":15.46973117,"ECCENTRICITY":0.0004111,"INCLINATION":52.9802,"RA_OF_ASC_NODE":162.3799,"ARG_OF_PERICENTER":1.2196,"MEAN_ANOMALY":358.8819,"EPHEMERIS_TYPE":0,"NORAD_CAT_ID":52196,"ELEMENT_SET_NO":999,"REV_AT_EPOCH":24001,"BSTAR":0.00027699,"MEAN_MOTION_DOT":0.00013792,"MEAN_MOTION_DDOT":0},{"OBJECT_NAME":"GLOBAL-19","OBJECT_ID":"2023-041B","EPOCH":"2026-07-06T02:56:39.954624","CLASSIFICATION_TYPE":"U","MEAN_MOTION":15.38514598,"ECCENTRICITY":0.00080337,"INCLINATION":42.0015,"RA_OF_ASC_NODE":91.4283,"ARG_OF_PERICENTER":156.0579,"MEAN_ANOMALY":204.0636,"EPHEMERIS_TYPE":0,"NORAD_CAT_ID":55982,"ELEMENT_SET_NO":999,"REV_AT_EPOCH":18484,"BSTAR":0.0003680252,"MEAN_MOTION_DOT":0.00014081,"MEAN_MOTION_DDOT":0},{"OBJECT_NAME":"GLOBAL-5","OBJECT_ID":"2023-041C","EPOCH":"2026-07-06T22:25:34.466016","CLASSIFICATION_TYPE":"U","MEAN_MOTION":15.38543185,"ECCENTRICITY":0.0007066,"INCLINATION":42.0002,"RA_OF_ASC_NODE":86.2185,"ARG_OF_PERICENTER":156.096,"MEAN_ANOMALY":204.0209,"EPHEMERIS_TYPE":0,"NORAD_CAT_ID":55983,"ELEMENT_SET_NO":999,"REV_AT_EPOCH":18497,"BSTAR":0.00028027,"MEAN_MOTION_DOT":0.00010661,"MEAN_MOTION_DDOT":0}]}
