GLOBAL-2                
1 43812U 18099BG  26188.17070324  .00002583  00000+0  16805-3 0  9994
2 43812  97.3550 223.8530 0007642  88.6043 271.6062 15.08797230414926
GLOBAL-4                
1 44499U 19054E   26188.17980437  .00047212  00000+0  44452-3 0  9990
2 44499  45.0043 120.8797 0004271 139.7591 220.3623 15.66393813383491
GLOBAL-9                
1 47971U 21023G   26188.20670808  .00016065  00000+0  31354-3 0  9998
2 47971  44.9802 137.9416 0002639 104.7424 255.3759 15.47367821298043
GLOBAL-14               
1 49469U 21106A   26188.43353363  .00017016  00000+0  28316-3 0  9994
2 49469  42.0026 170.6699 0016258 170.8772 189.2370 15.51549920261279
GLOBAL-12               
1 49772U 21115BA  26188.32942991  .00027653  00000+0  41160-3 0  9990
2 49772  53.1957 307.6011 0002603  70.1313 289.9979 15.54947504259031
GLOBAL-13               
1 49773U 21115BB  26188.34845025  .00014819  00000+0  29786-3 0  9993
2 49773  53.1980 318.6912 0001537 149.5926 210.5172 15.46890739258881
GLOBAL-17               
1 49949U 21120A   26188.47781847  .00021304  00000+0  33057-3 0  9992
2 49949  41.9950 288.2908 0014002  31.7848 328.3839 15.53410063258054
GLOBAL-16               
1 49950U 21120B   26188.51921288  .00017939  00000+0  30250-3 0  9995
2 49950  41.9953 292.1647 0012250  21.4228 338.7127 15.51211338258006
GLOBAL-18               
1 52196U 22034B   26187.89934839  .00013792  00000+0  27699-3 0  9998
2 52196  52.9802 162.3799 0004111   1.2196 358.8819 15.46973117240017
GLOBAL-19               
1 55982U 23041B   26187.12268466  .00014081  00000+0  36803-3 0  9994
2 55982  42.0015  91.4283 0008033 156.0579 204.0636 15.38514598184842
GLOBAL-5                
1 55983U 23041C   26187.93442669  .00010661  00000+0  28027-3 0  9992
2 55983  42.0002  86.2185 0007066 156.0960 204.0209 15.38543185184975
